{"type":"FeatureCollection","_note":"Tuong tang 2 AD tu Admin- 2nd- Room 224.dxf, dich (-1.8475, -1.9000) m: tam layer A-ROOM-224 trung tam AD-224","features":[{"type":"Feature","geometry":{"type":"Polygon","coordinates":[[[14.0277,272.0024],[14.2177,272.0024],[14.2177,271.7024],[14.0277,271.7024],[14.0277,272.0024]]]},"properties":{"building_id":"AD","floor":2,"kind":"wall","height":0.5,"base_height":0}},{"type":"Feature","geometry":{"type":"Polygon","coordinates":[[[3.7177,273.9224],[14.2177,273.9224],[14.2177,273.8524],[13.7177,273.8524],[14.2177,273.8524],[14.2177,273.0024],[14.0277,273.0024],[14.0277,273.3524],[13.7177,273.3524],[13.7177,273.7324],[4.2177,273.7324],[4.2177,273.3524],[3.8227,273.3524],[3.8227,271.7024],[3.7027,271.7024],[3.7027,273.3524],[3.7177,273.3524],[3.7177,273.8524],[4.2177,273.8524],[3.7177,273.8524],[3.7177,273.9224]]]},"properties":{"building_id":"AD","floor":2,"kind":"wall","height":0.5,"base_height":0}},{"type":"Feature","geometry":{"type":"Polygon","coordinates":[[[3.7177,240.1524],[3.7177,240.3424],[5.4927,240.3424],[5.4927,247.2874],[10.6877,247.2874],[10.6877,247.4174],[10.8777,247.4174],[10.8777,247.3024],[12.6031,247.3024],[12.6031,247.1124],[10.8777,247.1124],[10.8777,240.3424],[13.7177,240.3424],[13.7177,242.1024],[14.2177,242.1024],[14.2177,241.1024],[13.9077,241.1024],[13.9077,239.4524],[14.2177,239.4524],[14.2177,238.9524],[13.7177,238.9524],[13.7177,239.3624],[10.6877,239.3624],[10.6877,240.1524],[7.6127,240.1524],[7.6127,240.3424],[10.6877,240.3424],[10.6877,247.1674],[5.6127,247.1674],[5.6127,240.3424],[5.7127,240.3424],[5.7127,240.1524],[3.7177,240.1524]],[[10.7777,239.4524],[13.8177,239.4524],[13.8177,240.1524],[10.7777,240.1524],[10.7777,239.4524]]]},"properties":{"building_id":"AD","floor":2,"kind":"wall","height":0.5,"base_height":0}},{"type":"Feature","geometry":{"type":"Polygon","coordinates":[[[13.7177,254.9924],[13.7177,256.9024],[14.2177,256.9024],[14.2177,255.9024],[13.9077,255.9024],[13.9077,254.8024],[13.6027,254.8024],[13.6027,254.9924],[13.7177,254.9924]]]},"properties":{"building_id":"AD","floor":2,"kind":"wall","height":0.5,"base_height":0}},{"type":"Feature","geometry":{"type":"Polygon","coordinates":[[[9.2627,263.6374],[9.2627,263.7574],[11.4777,263.7574],[11.4777,263.7424],[13.2277,263.7424],[13.2277,265.0924],[13.7177,265.0924],[13.6677,265.0924],[13.6677,265.9924],[13.7677,265.9924],[13.7677,265.0924],[13.8577,265.0924],[13.8577,265.9924],[13.9577,265.9924],[13.9577,265.0924],[13.9077,265.0924],[13.9077,264.3024],[14.2177,264.3024],[14.2177,263.3024],[13.9077,263.3024],[13.9077,256.9024],[13.7177,256.9024],[13.7177,257.2274],[10.2777,257.2274],[10.2777,260.3024],[11.4777,260.3024],[11.4777,263.6374],[9.2627,263.6374]],[[13.3177,263.7424],[13.7177,263.7424],[13.7177,263.5524],[11.6677,263.5524],[11.6677,260.3024],[13.7177,260.3024],[13.7177,265.0024],[13.3177,265.0024],[13.3177,263.7424]],[[10.4677,260.1124],[10.4677,257.4174],[13.7177,257.4174],[13.7177,260.1124],[10.4677,260.1124]]]},"properties":{"building_id":"AD","floor":2,"kind":"wall","height":0.5,"base_height":0}},{"type":"Feature","geometry":{"type":"Polygon","coordinates":[[[13.7177,265.9924],[13.7177,271.7024],[14.2177,271.7024],[14.2177,270.7024],[13.9077,270.7024],[13.9077,265.9924],[13.7177,265.9924]]]},"properties":{"building_id":"AD","floor":2,"kind":"wall","height":0.5,"base_height":0}},{"type":"Feature","geometry":{"type":"Polygon","coordinates":[[[13.6031,247.3024],[13.9077,247.3024],[13.9077,242.1024],[13.7177,242.1024],[13.7177,247.1124],[13.6031,247.1124],[13.6031,247.3024]]]},"properties":{"building_id":"AD","floor":2,"kind":"wall","height":0.5,"base_height":0}},{"type":"Feature","geometry":{"type":"Polygon","coordinates":[[[13.6027,249.3124],[13.6027,249.5024],[13.7177,249.5024],[13.7177,249.3124],[13.6027,249.3124]]]},"properties":{"building_id":"AD","floor":2,"kind":"wall","height":0.5,"base_height":0}},{"type":"Feature","geometry":{"type":"Polygon","coordinates":[[[10.6877,249.3124],[4.2177,249.3124],[4.2177,249.5024],[4.6177,249.5024],[4.6177,251.6524],[4.8077,251.6524],[4.8077,250.8924],[5.6377,250.8924],[5.6377,249.5024],[12.6027,249.5024],[12.6027,249.3124],[10.8777,249.3124],[10.8777,248.4174],[10.6877,248.4174],[10.6877,249.3124]],[[5.5477,250.8024],[4.7077,250.8024],[4.7077,249.4024],[5.5477,249.4024],[5.5477,250.8024]]]},"properties":{"building_id":"AD","floor":2,"kind":"wall","height":0.5,"base_height":0}},{"type":"Feature","geometry":{"type":"Polygon","coordinates":[[[-4.2823,248.5024],[-4.2823,256.9024],[-3.7823,256.9024],[-3.7823,255.9024],[-4.0923,255.9024],[-4.0923,254.9924],[4.0277,254.9924],[4.0277,255.9024],[3.7177,255.9024],[3.7177,256.9024],[4.2177,256.9024],[4.2177,254.9924],[8.0427,254.9924],[8.0427,258.2074],[8.1627,258.2074],[8.1627,254.9924],[12.6027,254.9924],[12.6027,254.8024],[5.6377,254.8024],[5.6377,253.4124],[4.8077,253.4124],[4.8077,252.6524],[4.6177,252.6524],[4.6177,253.9024],[4.7077,253.9024],[4.7077,253.5024],[5.5477,253.5024],[5.5477,254.8024],[-4.0923,254.8024],[-4.0923,249.5024],[-3.7823,249.5024],[-3.7823,249.5174],[-0.0773,249.5174],[-0.0773,249.3974],[-3.7823,249.3974],[-3.7823,248.5024],[-4.2823,248.5024]]]},"properties":{"building_id":"AD","floor":2,"kind":"wall","height":0.5,"base_height":0}},{"type":"Feature","geometry":{"type":"Polygon","coordinates":[[[8.2627,263.6374],[8.1627,263.6374],[8.1627,261.4344],[8.0427,261.4344],[8.0427,263.2874],[4.2177,263.2874],[4.2177,260.3274],[8.0427,260.3274],[8.0427,260.4344],[8.1627,260.4344],[8.1627,260.1074],[8.0427,260.1074],[8.0427,260.2074],[4.2177,260.2074],[4.2177,256.9024],[4.0277,256.9024],[4.0277,263.3024],[3.7177,263.3024],[3.7177,264.3024],[4.2177,264.3024],[4.2177,263.4074],[8.0427,263.4074],[8.0427,264.3174],[8.1627,264.3174],[8.1627,263.7574],[8.2627,263.7574],[8.2627,263.6374]]]},"properties":{"building_id":"AD","floor":2,"kind":"wall","height":0.5,"base_height":0}},{"type":"Feature","geometry":{"type":"Polygon","coordinates":[[[4.2327,266.3174],[3.7027,266.3174],[3.7027,270.7024],[3.7177,270.7024],[3.7177,271.7024],[4.2177,271.7024],[4.2177,270.7024],[3.8227,270.7024],[3.8227,266.4374],[4.2327,266.4374],[4.2327,266.3174]]]},"properties":{"building_id":"AD","floor":2,"kind":"wall","height":0.5,"base_height":0}},{"type":"Feature","geometry":{"type":"Polygon","coordinates":[[[1.9227,249.3974],[1.9227,249.5174],[3.7177,249.5174],[3.7177,249.3974],[1.9227,249.3974]]]},"properties":{"building_id":"AD","floor":2,"kind":"wall","height":0.5,"base_height":0}},{"type":"Feature","geometry":{"type":"Polygon","coordinates":[[[-18.6273,240.3424],[-14.4823,240.3424],[-14.4823,240.3924],[-13.1823,240.3924],[-13.1823,240.3424],[-12.2823,240.3424],[-12.2823,240.3474],[-12.2973,240.3474],[-12.2973,242.5624],[-12.8823,242.5624],[-12.8823,242.8474],[-12.9973,242.8474],[-12.9973,242.9674],[-12.8823,242.9674],[-12.8823,243.1674],[-12.7923,243.1674],[-12.7923,242.6524],[-12.0923,242.6524],[-12.0923,242.1174],[-11.7673,242.1174],[-11.7673,241.0874],[-12.0923,241.0874],[-12.0923,240.3424],[-11.6323,240.3424],[-11.6323,240.3924],[-10.9323,240.3924],[-10.9323,240.3424],[-9.3323,240.3424],[-9.3323,240.3924],[-8.6323,240.3924],[-8.6323,240.3424],[-8.0923,240.3424],[-8.0923,244.2324],[-12.7923,244.2324],[-12.7923,244.1674],[-12.8823,244.1674],[-12.8823,244.3224],[-12.0323,244.3224],[-12.0323,247.1824],[-12.8823,247.1824],[-12.8823,247.2724],[-11.7423,247.2724],[-11.7423,247.0824],[-11.8423,247.0824],[-11.8423,244.5624],[-9.8023,244.5624],[-9.8023,247.0824],[-10.7423,247.0824],[-10.7423,247.2724],[-8.5273,247.2724],[-8.5273,247.0824],[-9.5023,247.0824],[-9.5023,244.5624],[-5.2323,244.5624],[-5.2323,247.0824],[-6.2073,247.0824],[-6.2073,247.2724],[-3.7823,247.2724],[-3.7823,247.1824],[-4.1923,247.1824],[-4.1923,244.3224],[-3.7823,244.3224],[-3.7823,244.1674],[-3.9723,244.1674],[-3.9723,244.2324],[-7.9723,244.2324],[-7.9723,240.3424],[-7.4323,240.3424],[-7.4323,240.3924],[-6.7323,240.3924],[-6.7323,240.3424],[-5.1323,240.3424],[-5.1323,240.3924],[-4.4323,240.3924],[-4.4323,240.3424],[-3.9723,240.3424],[-3.9723,241.0874],[-4.2973,241.0874],[-4.2973,242.1174],[-3.9723,242.1174],[-3.9723,243.1674],[-3.7823,243.1674],[-3.7823,240.1524],[-4.4323,240.1524],[-4.4323,240.1024],[-5.1323,240.1024],[-5.1323,240.1524],[-6.7323,240.1524],[-6.7323,240.1024],[-7.4323,240.1024],[-7.4323,240.1524],[-8.6323,240.1524],[-8.6323,240.1024],[-9.3323,240.1024],[-9.3323,240.1524],[-10.9323,240.1524],[-10.9323,240.1024],[-11.6323,240.1024],[-11.6323,240.1524],[-13.1823,240.1524],[-13.1823,240.1024],[-14.4823,240.1024],[-14.4823,240.1524],[-18.6273,240.1524],[-18.6273,240.1024],[-19.3273,240.1024],[-19.3273,240.2024],[-18.6273,240.2024],[-18.6273,240.2924],[-19.3273,240.2924],[-19.3273,240.3924],[-18.6273,240.3924],[-18.6273,240.3424]],[[-4.2823,241.1024],[-4.2823,242.1024],[-4.2823,242.1024],[-4.2823,241.1024]],[[-5.0423,247.0824],[-5.0423,244.3224],[-4.2823,244.3224],[-4.2823,247.0824],[-5.0423,247.0824]],[[-5.1323,240.2924],[-5.1323,240.2024],[-4.4323,240.2024],[-4.4323,240.2924],[-5.1323,240.2924]],[[-9.7123,244.4724],[-11.8423,244.4724],[-11.8423,244.3224],[-5.2323,244.3224],[-5.2323,244.4724],[-9.5923,244.4724],[-9.5923,247.0824],[-9.7123,247.0824],[-9.7123,244.4724]],[[-7.4323,240.2024],[-6.7323,240.2024],[-6.7323,240.2924],[-7.4323,240.2924],[-7.4323,240.2024]],[[-9.3323,240.2924],[-9.3323,240.2024],[-8.6323,240.2024],[-8.6323,240.2924],[-9.3323,240.2924]],[[-11.6323,240.2024],[-10.9323,240.2024],[-10.9323,240.2924],[-11.6323,240.2924],[-11.6323,240.2024]],[[-11.7823,241.1024],[-11.7823,242.1024],[-11.7823,241.1024],[-11.7823,241.1024]],[[-13.1823,240.2024],[-13.1823,240.2924],[-14.4823,240.2924],[-14.4823,240.2024],[-13.1823,240.2024]]]},"properties":{"building_id":"AD","floor":2,"kind":"wall","height":0.5,"base_height":0}},{"type":"Feature","geometry":{"type":"Polygon","coordinates":[[[-4.2823,270.7024],[-13.4973,270.7024],[-13.4973,270.8924],[-13.0723,270.8924],[-13.0723,271.9424],[-12.2823,271.9424],[-12.2823,272.2374],[-12.0923,272.2374],[-12.0923,271.7024],[-11.7823,271.7024],[-11.7823,270.8924],[-4.2823,270.8924],[-4.2823,270.7024]],[[-12.2823,270.8924],[-12.2823,271.8524],[-12.9823,271.8524],[-12.9823,270.8924],[-12.2823,270.8924]]]},"properties":{"building_id":"AD","floor":2,"kind":"wall","height":0.5,"base_height":0}},{"type":"Feature","geometry":{"type":"Polygon","coordinates":[[[-4.2823,270.7024],[-4.2823,273.8524],[-3.7823,273.8524],[-3.7823,273.3524],[-4.0904,273.3524],[-4.0904,271.7024],[-3.7823,271.7024],[-3.7823,270.7024],[-4.2823,270.7024]]]},"properties":{"building_id":"AD","floor":2,"kind":"wall","height":0.5,"base_height":0}},{"type":"Feature","geometry":{"type":"Polygon","coordinates":[[[-11.7823,273.3524],[-12.0923,273.3524],[-12.0923,273.2374],[-12.2823,273.2374],[-12.2823,273.7324],[-14.6123,273.7324],[-14.6123,273.6874],[-14.8023,273.6874],[-14.8023,273.9224],[-11.4673,273.9224],[-11.4673,273.9724],[-10.7673,273.9724],[-10.7673,273.9224],[-3.7823,273.9224],[-3.7823,273.8524],[-4.2823,273.8524],[-4.2823,273.7324],[-10.7673,273.7324],[-10.7673,273.6824],[-11.4673,273.6824],[-11.4673,273.7324],[-11.7823,273.7324],[-11.7823,273.8524],[-12.2823,273.8524],[-11.7823,273.8524],[-11.7823,273.3524]],[[-10.7673,273.7824],[-10.7673,273.8724],[-11.4673,273.8724],[-11.4673,273.7824],[-10.7673,273.7824]]]},"properties":{"building_id":"AD","floor":2,"kind":"wall","height":0.5,"base_height":0}},{"type":"Feature","geometry":{"type":"Polygon","coordinates":[[[-7.4623,244.5639],[-7.4623,247.0824],[-7.5273,247.0824],[-7.5273,247.2724],[-7.2073,247.2724],[-7.2073,247.0824],[-7.2723,247.0824],[-7.2723,244.5639],[-7.4623,244.5639]]]},"properties":{"building_id":"AD","floor":2,"kind":"wall","height":0.5,"base_height":0}},{"type":"Feature","geometry":{"type":"Polygon","coordinates":[[[-14.9973,242.9674],[-13.9973,242.9674],[-13.9973,242.8474],[-20.0923,242.8474],[-20.0923,242.1174],[-19.7673,242.1174],[-19.7673,241.0874],[-20.0923,241.0874],[-20.0923,240.3424],[-19.3273,240.3424],[-19.3273,240.1524],[-20.2823,240.1524],[-20.2823,243.1024],[-20.3323,243.1024],[-20.3323,243.8024],[-20.2323,243.8024],[-20.2323,243.1024],[-20.1423,243.1024],[-20.1423,243.8024],[-20.0423,243.8024],[-20.0423,243.1024],[-20.0923,243.1024],[-20.0923,242.9674],[-15.1173,242.9674],[-15.1173,245.4974],[-14.9973,245.4974],[-14.9973,242.9674]],[[-19.7823,242.1024],[-19.7823,241.1024],[-19.7823,241.1024],[-19.7823,242.1024]]]},"properties":{"building_id":"AD","floor":2,"kind":"wall","height":0.5,"base_height":0}},{"type":"Feature","geometry":{"type":"Polygon","coordinates":[[[-14.4973,270.8924],[-14.4973,270.7024],[-14.8023,270.7024],[-14.8023,272.6874],[-14.6123,272.6874],[-14.6123,270.8924],[-14.4973,270.8924]]]},"properties":{"building_id":"AD","floor":2,"kind":"wall","height":0.5,"base_height":0}},{"type":"Feature","geometry":{"type":"Polygon","coordinates":[[[-19.6823,249.1524],[-19.6823,249.2524],[-18.9823,249.2524],[-18.9823,249.2024],[-14.9823,249.2024],[-14.9823,249.0124],[-14.9973,249.0124],[-14.9973,247.7974],[-15.1173,247.7974],[-15.1173,249.0124],[-18.9823,249.0124],[-18.9823,248.9624],[-19.6823,248.9624],[-19.6823,249.0624],[-18.9823,249.0624],[-18.9823,249.1524],[-19.6823,249.1524]]]},"properties":{"building_id":"AD","floor":2,"kind":"wall","height":0.5,"base_height":0}},{"type":"Feature","geometry":{"type":"Polygon","coordinates":[[[-19.7823,249.5024],[-19.7823,248.5024],[-19.7823,249.5024],[-19.7673,249.5024],[-19.7673,249.2024],[-19.6823,249.2024],[-19.6823,249.0124],[-19.7673,249.0124],[-19.7673,248.4874],[-20.0923,248.4874],[-20.0923,246.6874],[-15.1173,246.6874],[-15.1173,246.7974],[-14.9973,246.7974],[-14.9973,246.4974],[-15.1173,246.4974],[-15.1173,246.5674],[-20.0923,246.5674],[-20.0923,246.5024],[-20.2823,246.5024],[-20.2823,249.5024],[-19.7823,249.5024]]]},"properties":{"building_id":"AD","floor":2,"kind":"wall","height":0.5,"base_height":0}},{"type":"Feature","geometry":{"type":"Polygon","coordinates":[[[-20.2323,246.5024],[-20.2323,245.8024],[-20.1423,245.8024],[-20.1423,246.5024],[-20.0423,246.5024],[-20.0423,245.8024],[-20.0923,245.8024],[-20.0923,243.8024],[-20.2823,243.8024],[-20.2823,245.8024],[-20.3323,245.8024],[-20.3323,246.5024],[-20.2323,246.5024]]]},"properties":{"building_id":"AD","floor":2,"kind":"wall","height":0.5,"base_height":0}},{"type":"Feature","geometry":{"type":"Polygon","coordinates":[[[-45.5723,268.5724],[-38.2773,268.5724],[-38.2773,268.2224],[-34.9073,268.2224],[-34.9073,268.5724],[-28.8873,268.5724],[-28.8873,268.3824],[-28.9023,268.3824],[-28.9023,267.2824],[-27.9723,267.2824],[-27.9723,268.3824],[-27.9873,268.3824],[-27.9873,268.5724],[-27.7823,268.5724],[-27.7823,265.5324],[-35.0323,265.5324],[-35.0323,265.7224],[-34.9073,265.7224],[-34.9073,266.5224],[-34.8173,266.5224],[-34.8173,265.7224],[-29.0923,265.7224],[-29.0923,268.2424],[-34.8173,268.2424],[-34.8173,267.6424],[-34.9073,267.6424],[-34.9073,267.9224],[-36.3523,267.9224],[-36.3523,265.7224],[-36.0323,265.7224],[-36.0323,265.5324],[-37.1523,265.5324],[-37.1523,265.7224],[-36.8323,265.7224],[-36.8323,267.9224],[-38.2773,267.9224],[-38.2773,267.6424],[-38.3673,267.6424],[-38.3673,268.2424],[-44.0923,268.2424],[-44.0923,265.7224],[-38.3673,265.7224],[-38.3673,266.5224],[-38.2773,266.5224],[-38.2773,265.7224],[-38.1523,265.7224],[-38.1523,265.5324],[-45.5723,265.5324],[-45.5723,268.5724]],[[-28.9023,267.0924],[-28.9023,265.7224],[-27.8723,265.7224],[-27.8723,267.0924],[-28.9023,267.0924]],[[-29.0923,268.4824],[-34.8173,268.4824],[-34.8173,268.3324],[-29.0923,268.3324],[-29.0923,268.4824]],[[-36.7423,265.7224],[-36.4423,265.7224],[-36.4423,268.0124],[-34.9073,268.0124],[-34.9073,268.1324],[-38.2773,268.1324],[-38.2773,268.0124],[-36.7423,268.0124],[-36.7423,265.7224]],[[-44.0923,268.4824],[-44.0923,268.3324],[-38.3673,268.3324],[-38.3673,268.4824],[-44.0923,268.4824]],[[-44.2823,265.6224],[-44.2823,268.4824],[-45.4823,268.4824],[-45.4823,265.6224],[-44.2823,265.6224]]]},"properties":{"building_id":"AD","floor":2,"kind":"wall","height":0.5,"base_height":0}},{"type":"Feature","geometry":{"type":"Polygon","coordinates":[[[-28.8905,252.2217],[-28.9356,252.1005],[-28.111,254.3216],[-27.8298,254.2172],[-28.7137,251.8361],[-29.3373,252.0676],[-29.2329,252.3488],[-28.8905,252.2217]]]},"properties":{"building_id":"AD","floor":2,"kind":"wall","height":0.5,"base_height":0}},{"type":"Feature","geometry":{"type":"Polygon","coordinates":[[[-28.0323,255.2525],[-28.1367,254.9713],[-28.1836,254.9887],[-28.201,254.9418],[-29.4197,255.3942],[-29.3849,255.488],[-28.2131,255.053],[-28.1435,255.2405],[-29.3153,255.6755],[-29.2805,255.7692],[-28.0618,255.3168],[-28.0792,255.2699],[-28.0323,255.2525]]]},"properties":{"building_id":"AD","floor":2,"kind":"wall","height":0.5,"base_height":0}},{"type":"Feature","geometry":{"type":"Polygon","coordinates":[[[-35.7666,258.1236],[-29.2979,255.7223],[-29.4023,255.4411],[-35.0367,257.5326],[-36.025,254.8702],[-36.0957,254.8964],[-30.1704,252.6968],[-30.2748,252.4156],[-37.245,255.0031],[-36.0479,258.228],[-35.7666,258.1236]],[[-36.8594,255.1799],[-36.2031,254.9363],[-35.2148,257.5988],[-35.871,257.8424],[-35.7666,258.1236],[-36.8594,255.1799]]]},"properties":{"building_id":"AD","floor":2,"kind":"wall","height":0.5,"base_height":0}},{"type":"Feature","geometry":{"type":"Polygon","coordinates":[[[-36.6318,248.8392],[-35.4259,252.0876],[-29.4447,249.8673],[-30.6506,246.6189],[-36.6318,248.8392]],[[-30.48,247.0782],[-36.3769,249.2672],[-36.5161,248.8922],[-30.7036,246.7346],[-30.5644,247.1096],[-30.48,247.0782]],[[-36.18,249.1941],[-36.0756,249.4754],[-30.6569,247.4639],[-29.8304,249.6904],[-32.4507,250.6631],[-33.2772,248.4366],[-33.4553,248.5027],[-32.6288,250.7292],[-35.2491,251.7019],[-36.18,249.1941]]]},"properties":{"building_id":"AD","floor":2,"kind":"wall","height":0.5,"base_height":0}},{"type":"Feature","geometry":{"type":"Polygon","coordinates":[[[-36.9276,248.0423],[-36.6318,248.8392],[-36.4536,248.7731],[-36.7495,247.9762],[-36.9276,248.0423]]]},"properties":{"building_id":"AD","floor":2,"kind":"wall","height":0.5,"base_height":0}},{"type":"Feature","geometry":{"type":"Polygon","coordinates":[[[-30.6506,246.6189],[-30.9464,245.822],[-31.1245,245.8881],[-30.8287,246.685],[-30.6506,246.6189]]]},"properties":{"building_id":"AD","floor":2,"kind":"wall","height":0.5,"base_height":0}},{"type":"Feature","geometry":{"type":"Polygon","coordinates":[[[-48.6625,264.1586],[-48.4844,264.0925],[-48.7889,263.2722],[-48.967,263.3383],[-48.6625,264.1586]]]},"properties":{"building_id":"AD","floor":2,"kind":"wall","height":0.5,"base_height":0}},{"type":"Feature","geometry":{"type":"Polygon","coordinates":[[[-48.4844,264.0925],[-49.0469,264.3013],[-48.9807,264.4794],[-48.4182,264.2706],[-48.4844,264.0925]]]},"properties":{"building_id":"AD","floor":2,"kind":"wall","height":0.5,"base_height":0}},{"type":"Feature","geometry":{"type":"Polygon","coordinates":[[[-58.516,263.2176],[-57.4599,266.0696],[-54.1668,264.8472],[-54.2135,264.7213],[-54.1668,264.8472],[-51.7435,263.9476],[-51.6043,264.3226],[-51.5537,264.3038],[-57.2338,266.4124],[-57.2025,266.4968],[-53.3971,265.0841],[-53.5323,265.1343],[-53.1948,266.0437],[-52.2666,265.6992],[-52.3328,265.5211],[-53.0828,265.7995],[-53.3542,265.0682],[-51.6667,264.4418],[-51.3953,265.173],[-51.489,265.2078],[-51.4229,265.386],[-50.762,265.1406],[-50.8281,264.9625],[-51.2172,265.1069],[-51.6591,263.9163],[-51.6625,263.9176],[-51.6591,263.9163],[-52.7158,261.0697],[-52.8202,260.7885],[-57.058,262.3578],[-56.9539,262.6391],[-55.5056,262.1028],[-54.5351,264.7172],[-57.3123,265.7482],[-57.486,265.2793],[-54.7091,264.2485],[-54.7404,264.1641],[-57.5172,265.1949],[-58.2816,263.1307],[-58.516,263.2176]],[[-52.7158,261.0697],[-52.9971,261.1739],[-52.0448,263.7395],[-54.2712,264.5659],[-55.2242,261.9986],[-52.7158,261.0697]]]},"properties":{"building_id":"AD","floor":2,"kind":"wall","height":0.5,"base_height":0}},{"type":"Feature","geometry":{"type":"Polygon","coordinates":[[[-58.516,263.2176],[-57.8916,262.9863],[-57.9958,262.705],[-58.6202,262.9362],[-58.516,263.2176]]]},"properties":{"building_id":"AD","floor":2,"kind":"wall","height":0.5,"base_height":0}},{"type":"Feature","geometry":{"type":"Polygon","coordinates":[[[-58.6622,257.3639],[-53.0279,255.2723],[-52.0395,257.9348],[-51.9506,257.9018],[-57.8942,260.1081],[-57.7898,260.3894],[-50.8195,257.8019],[-52.0167,254.5769],[-58.7666,257.0826],[-58.784,257.0357],[-60.0027,257.4881],[-59.9679,257.5819],[-58.7492,257.1295],[-58.6796,257.317],[-59.8983,257.7694],[-59.8635,257.8631],[-58.6448,257.4107],[-58.6622,257.3639]],[[-51.8614,257.8687],[-52.8498,255.2062],[-52.1935,254.9626],[-51.2052,257.6251],[-51.8614,257.8687]]]},"properties":{"building_id":"AD","floor":2,"kind":"wall","height":0.5,"base_height":0}},{"type":"Feature","geometry":{"type":"Polygon","coordinates":[[[-51.7823,241.1024],[-52.2823,241.1024],[-52.2823,242.1024],[-51.9723,242.1024],[-51.9723,248.5024],[-52.2823,248.5024],[-52.2823,249.5024],[-51.7823,249.5024],[-51.7823,241.1024]]]},"properties":{"building_id":"AD","floor":2,"kind":"wall","height":0.5,"base_height":0}},{"type":"Feature","geometry":{"type":"Polygon","coordinates":[[[-77.3773,241.0524],[-78.6773,241.0524],[-78.6773,241.1524],[-77.3773,241.1524],[-77.3773,241.2924],[-78.6773,241.2924],[-78.6773,241.1024],[-79.6753,241.1024],[-79.6753,241.0524],[-80.9753,241.0524],[-80.9753,241.1524],[-79.6753,241.1524],[-79.6753,241.2924],[-80.9753,241.2924],[-80.9753,241.1024],[-81.6523,241.1024],[-81.6523,245.6324],[-81.7173,245.6324],[-81.7173,245.8224],[-81.6523,245.8224],[-81.6523,247.2874],[-76.0323,247.2874],[-76.0323,247.1674],[-75.0836,247.167],[-74.9023,247.1674],[-75.0323,247.1674],[-75.0323,247.2874],[-69.3973,247.2874],[-69.3973,247.1674],[-68.4485,247.1671],[-68.2973,247.1674],[-68.3973,247.1674],[-68.3973,247.2874],[-63.1523,247.2874],[-63.1523,247.1674],[-61.2523,247.1674],[-61.2523,247.2874],[-56.3173,247.2874],[-56.3173,241.1024],[-56.9823,241.1024],[-56.9823,241.0524],[-58.2823,241.0524],[-58.2823,241.1524],[-56.9823,241.1524],[-56.9823,241.2924],[-58.2823,241.2924],[-58.2823,241.1024],[-59.7823,241.1024],[-59.7823,242.1024],[-60.2823,242.1024],[-59.7823,242.1024],[-59.7823,241.1024],[-60.7823,241.1024],[-60.7823,241.0524],[-62.0823,241.0524],[-62.0823,241.1524],[-60.7823,241.1524],[-60.7823,241.2924],[-62.0823,241.2924],[-62.0823,241.1024],[-65.6923,241.1024],[-65.6923,241.0524],[-66.9923,241.0524],[-66.9923,241.1524],[-65.6923,241.1524],[-65.6923,241.2924],[-66.9923,241.2924],[-66.9923,241.1024],[-67.7823,241.1024],[-67.7823,242.1024],[-68.2973,242.1024],[-68.2973,241.2924],[-68.2823,241.2924],[-68.2823,242.1024],[-67.7823,242.1024],[-67.7823,241.1024],[-69.0723,241.1024],[-69.0723,241.0524],[-70.3723,241.0524],[-70.3723,241.1524],[-69.0723,241.1524],[-69.0723,241.2924],[-70.3723,241.2924],[-70.3723,241.1024],[-72.9823,241.1024],[-72.9823,241.0524],[-74.2823,241.0524],[-74.2823,241.1524],[-72.9823,241.1524],[-72.9823,241.2924],[-74.2823,241.2924],[-74.2823,241.1024],[-75.7823,241.1024],[-75.7823,242.1024],[-75.7823,241.1024],[-76.2823,241.1024],[-76.2823,242.1024],[-76.3623,242.1024],[-76.3623,241.1024],[-77.3773,241.1024],[-77.3773,241.0524]],[[-67.7673,242.1174],[-67.7673,241.3074],[-60.2973,241.3074],[-60.2973,242.1174],[-59.7673,242.1174],[-59.7673,241.3074],[-56.4523,241.3074],[-56.4523,247.1524],[-68.1623,247.1524],[-68.1623,242.1174],[-67.7673,242.1174]],[[-74.7523,241.3074],[-68.3123,241.3074],[-68.3123,247.1524],[-74.7523,247.1524],[-74.7523,241.3074]],[[-81.4473,247.1524],[-81.4473,241.3074],[-76.8773,241.3074],[-76.8773,242.1174],[-75.7673,242.1174],[-75.7673,241.3074],[-74.9023,241.3074],[-74.9023,247.1524],[-81.4473,247.1524]]]},"properties":{"building_id":"AD","floor":2,"kind":"wall","height":0.5,"base_height":0}},{"type":"Feature","geometry":{"type":"Polygon","coordinates":[[[-57.4574,266.0687],[-57.353,266.35],[-59.4953,267.1452],[-59.4291,267.3233],[-57.2025,266.4968],[-57.373,266.0374],[-57.4574,266.0687]]]},"properties":{"building_id":"AD","floor":2,"kind":"wall","height":0.5,"base_height":0}},{"type":"Feature","geometry":{"type":"Polygon","coordinates":[[[-58.8317,260.4561],[-59.1738,260.5832],[-59.9534,258.4832],[-60.2346,258.5876],[-59.3507,260.9688],[-58.7273,260.7374],[-58.8317,260.4561]]]},"properties":{"building_id":"AD","floor":2,"kind":"wall","height":0.5,"base_height":0}},{"type":"Feature","geometry":{"type":"Polygon","coordinates":[[[-76.0223,254.3524],[-75.9223,254.3524],[-75.9223,253.6524],[-75.8323,253.6524],[-75.8323,254.3524],[-75.7323,254.3524],[-75.7323,253.6524],[-75.7823,253.6524],[-75.7823,252.4024],[-75.9723,252.4024],[-75.9723,252.9174],[-81.5473,252.9174],[-81.5473,252.8174],[-81.6673,252.8174],[-81.6673,253.1349],[-81.6523,253.1349],[-81.6523,253.1374],[-81.4623,253.1374],[-81.4623,253.1349],[-81.4473,253.1349],[-81.4473,253.0374],[-75.9723,253.0374],[-75.9723,253.6524],[-76.0223,253.6524],[-76.0223,254.3524]]]},"properties":{"building_id":"AD","floor":2,"kind":"wall","height":0.5,"base_height":0}},{"type":"Feature","geometry":{"type":"Polygon","coordinates":[[[-76.0223,252.4024],[-75.9223,252.4024],[-75.9223,251.7024],[-75.8323,251.7024],[-75.8323,252.4024],[-75.7323,252.4024],[-75.7323,251.7024],[-75.7823,251.7024],[-75.7823,248.5024],[-76.2823,248.5024],[-76.2823,249.5024],[-75.9723,249.5024],[-75.9723,249.5174],[-81.5473,249.5174],[-81.5473,248.8874],[-81.6673,248.8874],[-81.6673,251.8174],[-81.5473,251.8174],[-81.5473,249.6374],[-75.9723,249.6374],[-75.9723,251.7024],[-76.0223,251.7024],[-76.0223,252.4024]]]},"properties":{"building_id":"AD","floor":2,"kind":"wall","height":0.5,"base_height":0}},{"type":"Feature","geometry":{"type":"Polygon","coordinates":[[[-75.9723,256.9024],[-75.9723,258.5024],[-76.0223,258.5024],[-76.0223,259.2024],[-75.9223,259.2024],[-75.9223,258.5024],[-75.8323,258.5024],[-75.8323,259.2024],[-75.7323,259.2024],[-75.7323,258.5024],[-75.7823,258.5024],[-75.7823,254.3524],[-75.9723,254.3524],[-75.9723,255.9024],[-76.2823,255.9024],[-76.2823,256.9024],[-75.9723,256.9024]]]},"properties":{"building_id":"AD","floor":2,"kind":"wall","height":0.5,"base_height":0}},{"type":"Feature","geometry":{"type":"Polygon","coordinates":[[[-81.5473,259.8879],[-75.9723,259.8879],[-75.9723,260.4524],[-76.0223,260.4524],[-76.0223,261.1524],[-75.9223,261.1524],[-75.9223,260.4524],[-75.8323,260.4524],[-75.8323,261.1524],[-75.7323,261.1524],[-75.7323,260.4524],[-75.7823,260.4524],[-75.7823,259.2024],[-75.9723,259.2024],[-75.9723,259.7679],[-81.4473,259.7679],[-81.4473,259.6774],[-81.6673,259.6774],[-81.6673,259.9774],[-81.5473,259.9774],[-81.5473,259.8879]]]},"properties":{"building_id":"AD","floor":2,"kind":"wall","height":0.5,"base_height":0}},{"type":"Feature","geometry":{"type":"Polygon","coordinates":[[[-81.6673,266.7414],[-81.6673,268.6974],[-81.5473,268.6974],[-81.5473,268.5974],[-75.8873,268.5974],[-75.8873,270.7024],[-75.7673,270.7024],[-75.7673,265.5174],[-81.6673,265.5174],[-81.6673,265.7414],[-81.5473,265.7414],[-81.5473,265.6374],[-75.8873,265.6374],[-75.8873,268.4774],[-81.5473,268.4774],[-81.5473,266.7414],[-81.6673,266.7414]]]},"properties":{"building_id":"AD","floor":2,"kind":"wall","height":0.5,"base_height":0}},{"type":"Feature","geometry":{"type":"Polygon","coordinates":[[[-75.7823,263.3024],[-75.7823,261.1524],[-75.9723,261.1524],[-75.9723,263.1674],[-81.5473,263.1674],[-81.5473,260.9774],[-81.6673,260.9774],[-81.6673,263.9174],[-81.5473,263.9174],[-81.5473,263.2874],[-75.9723,263.2874],[-75.9723,263.3024],[-75.7823,263.3024]]]},"properties":{"building_id":"AD","floor":2,"kind":"wall","height":0.5,"base_height":0}},{"type":"Feature","geometry":{"type":"Polygon","coordinates":[[[-76.2823,263.3024],[-76.2823,264.3024],[-75.7823,264.3024],[-75.7823,263.3024],[-76.2823,263.3024]]]},"properties":{"building_id":"AD","floor":2,"kind":"wall","height":0.5,"base_height":0}},{"type":"Feature","geometry":{"type":"Polygon","coordinates":[[[-81.6523,254.1374],[-81.6523,255.9024],[-81.7173,255.9024],[-81.7173,256.0924],[-81.6523,256.0924],[-81.6523,258.6774],[-81.4623,258.6774],[-81.4623,256.4624],[-76.8623,256.4624],[-76.8623,256.9024],[-76.3623,256.9024],[-76.3623,255.9024],[-76.8623,255.9024],[-76.8623,256.3424],[-81.4623,256.3424],[-81.4623,254.1374],[-81.6523,254.1374]]]},"properties":{"building_id":"AD","floor":2,"kind":"wall","height":0.5,"base_height":0}},{"type":"Feature","geometry":{"type":"Polygon","coordinates":[[[-77.3923,271.6524],[-78.0923,271.6524],[-78.0923,271.7524],[-77.3923,271.7524],[-77.3923,271.7024],[-76.8623,271.7024],[-76.8623,271.5124],[-77.3923,271.5124],[-77.3923,271.4624],[-78.0923,271.4624],[-78.0923,271.5624],[-77.3923,271.5624],[-77.3923,271.6524]]]},"properties":{"building_id":"AD","floor":2,"kind":"wall","height":0.5,"base_height":0}},{"type":"Feature","geometry":{"type":"Polygon","coordinates":[[[-80.3023,271.6524],[-81.0023,271.6524],[-81.0023,271.7524],[-80.3023,271.7524],[-80.3023,271.7024],[-78.0923,271.7024],[-78.0923,271.5124],[-80.3023,271.5124],[-80.3023,271.4624],[-81.0023,271.4624],[-81.0023,271.5624],[-80.3023,271.5624],[-80.3023,271.6524]]]},"properties":{"building_id":"AD","floor":2,"kind":"wall","height":0.5,"base_height":0}},{"type":"Feature","geometry":{"type":"Polygon","coordinates":[[[-81.5473,271.5124],[-81.5473,269.6974],[-81.6673,269.6974],[-81.6673,271.7024],[-81.0023,271.7024],[-81.0023,271.5124],[-81.5473,271.5124]]]},"properties":{"building_id":"AD","floor":2,"kind":"wall","height":0.5,"base_height":0}},{"type":"Feature","geometry":{"type":"Polygon","coordinates":[[[-99.7823,247.2724],[-83.7823,247.2724],[-83.7823,245.8224],[-83.7173,245.8224],[-83.7173,245.6324],[-83.7823,245.6324],[-83.7823,244.2324],[-89.7873,244.2324],[-89.7873,244.7324],[-89.9123,244.7324],[-89.9123,244.9224],[-89.7873,244.9224],[-89.7873,245.8224],[-89.6973,245.8224],[-89.6973,244.5624],[-83.9723,244.5624],[-83.9723,247.0824],[-91.2323,247.0824],[-91.2323,244.9224],[-90.9123,244.9224],[-90.9123,244.7324],[-92.0323,244.7324],[-92.0323,244.9224],[-91.7123,244.9224],[-91.7123,247.0824],[-98.9723,247.0824],[-98.9723,244.5624],[-93.2473,244.5624],[-93.2473,245.8224],[-93.1573,245.8224],[-93.1573,244.9224],[-93.0323,244.9224],[-93.0323,244.7324],[-93.1573,244.7324],[-93.1573,244.2324],[-101.3173,244.2324],[-101.3173,244.3224],[-100.7923,244.3224],[-100.7923,247.1824],[-101.3173,247.1824],[-101.3173,247.2724],[-99.9723,247.2724],[-99.9723,247.3874],[-99.7823,247.3874],[-99.7823,247.2724]],[[-89.6973,244.4724],[-89.6973,244.3224],[-83.9723,244.3224],[-83.9723,244.4724],[-89.6973,244.4724]],[[-91.6223,247.0824],[-91.6223,244.9224],[-91.3223,244.9224],[-91.3223,247.0824],[-91.6223,247.0824]],[[-93.2473,244.3224],[-93.2473,244.4724],[-98.9723,244.4724],[-98.9723,244.3224],[-93.2473,244.3224]],[[-99.1623,244.3224],[-99.1623,247.0824],[-100.7023,247.0824],[-100.7023,244.3224],[-99.1623,244.3224]]]},"properties":{"building_id":"AD","floor":2,"kind":"wall","height":0.5,"base_height":0}},{"type":"Feature","geometry":{"type":"Polygon","coordinates":[[[-84.6973,261.7874],[-83.7673,261.7874],[-83.7673,256.9024],[-83.7823,256.9024],[-83.7823,256.0924],[-83.7173,256.0924],[-83.7173,255.9024],[-83.7673,255.9024],[-83.7673,251.0174],[-84.6973,251.0174],[-84.6973,250.6174],[-84.8173,250.6174],[-84.8173,251.1174],[-83.8673,251.1174],[-83.8673,255.9024],[-83.7823,255.9024],[-84.2823,255.9024],[-84.2823,256.9024],[-83.8673,256.9024],[-83.8673,261.6874],[-84.8173,261.6874],[-84.8173,262.1874],[-84.6973,262.1874],[-84.6973,261.7874]]]},"properties":{"building_id":"AD","floor":2,"kind":"wall","height":0.5,"base_height":0}},{"type":"Feature","geometry":{"type":"Polygon","coordinates":[[[-84.2823,270.7024],[-84.2823,271.7024],[-83.7823,271.7024],[-83.7823,270.7024],[-83.7673,270.7024],[-83.7673,269.6974],[-83.8873,269.6974],[-83.8873,270.7024],[-84.2823,270.7024]]]},"properties":{"building_id":"AD","floor":2,"kind":"wall","height":0.5,"base_height":0}},{"type":"Feature","geometry":{"type":"Polygon","coordinates":[[[-92.4723,265.7224],[-92.4723,266.6524],[-93.7023,266.6524],[-93.7023,267.9924],[-95.5773,267.9924],[-95.5773,268.1824],[-95.1923,268.1824],[-95.1923,268.5724],[-93.6173,268.5724],[-93.6173,269.6574],[-93.4973,269.6574],[-93.4973,268.5274],[-93.5123,268.5274],[-93.5123,266.8424],[-92.2823,266.8424],[-92.2823,265.6374],[-89.6173,265.6374],[-89.6173,271.5124],[-91.7823,271.5124],[-91.7823,270.7024],[-92.2823,270.7024],[-92.2823,271.7024],[-89.0323,271.7024],[-89.0323,271.5124],[-89.4973,271.5124],[-89.4973,268.5974],[-83.8873,268.5974],[-83.8873,268.6974],[-83.7673,268.6974],[-83.7673,268.3774],[-83.8873,268.3774],[-83.8873,268.4774],[-89.4973,268.4774],[-89.4973,265.6374],[-83.8873,265.6374],[-83.8873,267.3774],[-83.7673,267.3774],[-83.7673,265.5174],[-92.2823,265.5174],[-92.2823,265.5324],[-99.7823,265.5324],[-99.7823,265.4174],[-99.9723,265.4174],[-99.9723,265.5324],[-101.3175,265.5324],[-101.3175,265.6224],[-100.7823,265.6224],[-100.7823,267.9924],[-101.3168,267.9924],[-101.3168,268.0824],[-99.8723,268.0824],[-99.8723,268.5724],[-98.2923,268.5724],[-98.2923,268.1824],[-97.9023,268.1824],[-97.9023,267.9924],[-99.7823,267.9924],[-99.7823,265.7224],[-96.8373,265.7224],[-96.8373,267.9924],[-96.9023,267.9924],[-96.9023,268.1824],[-96.5773,268.1824],[-96.5773,267.9924],[-96.6473,267.9924],[-96.6473,265.7224],[-92.4723,265.7224]],[[-95.1023,268.0824],[-93.7023,268.0824],[-93.7023,268.4824],[-95.1023,268.4824],[-95.1023,268.0824]],[[-98.3823,268.0824],[-98.3823,268.4824],[-99.7823,268.4824],[-99.7823,268.0824],[-98.3823,268.0824]],[[-99.9723,265.6224],[-99.9723,267.9924],[-100.6923,267.9924],[-100.6923,265.6224],[-99.9723,265.6224]]]},"properties":{"building_id":"AD","floor":2,"kind":"wall","height":0.5,"base_height":0}},{"type":"Feature","geometry":{"type":"Polygon","coordinates":[[[-84.3973,239.0724],[-84.2823,239.0724],[-84.2823,238.9524],[-83.7823,238.9524],[-83.7823,238.8824],[-84.3973,238.8824],[-84.3973,239.0724]]]},"properties":{"building_id":"AD","floor":2,"kind":"wall","height":0.5,"base_height":0}},{"type":"Feature","geometry":{"type":"Polygon","coordinates":[[[-83.7823,238.9524],[-84.2823,238.9524],[-84.2823,241.9124],[-84.3973,241.9124],[-84.3973,242.1024],[-83.7823,242.1024],[-83.7823,241.1024],[-84.0923,241.1024],[-84.0923,239.4524],[-83.7823,239.4524],[-83.7823,238.9524]]]},"properties":{"building_id":"AD","floor":2,"kind":"wall","height":0.5,"base_height":0}},{"type":"Feature","geometry":{"type":"Polygon","coordinates":[[[-91.7823,264.3174],[-84.2823,264.3174],[-84.2823,264.3024],[-83.7823,264.3024],[-83.7823,263.3024],[-84.2823,263.3024],[-84.2823,264.2174],[-84.7173,264.2174],[-84.7173,263.3874],[-84.2823,263.3874],[-84.2823,263.2874],[-84.6973,263.2874],[-84.6973,263.1874],[-84.8173,263.1874],[-84.8173,264.1974],[-91.7823,264.1974],[-91.7823,263.3024],[-92.2823,263.3024],[-92.2823,264.1974],[-99.7823,264.1974],[-99.7823,264.3024],[-99.7823,263.3024],[-100.2823,263.3024],[-100.2823,264.3024],[-99.9723,264.3024],[-99.9723,264.4174],[-99.7823,264.4174],[-99.7823,264.3174],[-92.2823,264.3174],[-92.2823,264.3024],[-91.7823,264.3024],[-91.7823,264.3174]]]},"properties":{"building_id":"AD","floor":2,"kind":"wall","height":0.5,"base_height":0}},{"type":"Feature","geometry":{"type":"Polygon","coordinates":[[[-100.2823,249.5024],[-99.7823,249.5024],[-99.7823,248.5024],[-99.7823,248.6074],[-92.2823,248.6074],[-92.2823,249.5024],[-92.2973,249.5024],[-92.2973,255.9024],[-92.2823,255.9024],[-92.2823,256.9024],[-92.2973,256.9024],[-92.2973,263.3024],[-92.1773,263.3024],[-92.1773,256.9024],[-91.7823,256.9024],[-91.7823,255.9024],[-92.1773,255.9024],[-92.1773,249.5024],[-91.7823,249.5024],[-91.7823,248.6074],[-84.8173,248.6074],[-84.8173,249.6174],[-84.6973,249.6174],[-84.6973,249.5174],[-84.2823,249.5174],[-84.2823,249.5024],[-83.7823,249.5024],[-83.7823,248.5024],[-84.2823,248.5024],[-84.2823,248.4874],[-91.7823,248.4874],[-91.7823,248.5024],[-92.2823,248.5024],[-92.2823,248.4874],[-99.7823,248.4874],[-99.7823,248.3874],[-99.9723,248.3874],[-99.9723,248.5024],[-100.2823,248.5024],[-100.2823,248.4874],[-101.3323,248.4874],[-101.3323,249.5174],[-100.4193,249.5174],[-100.4193,249.6174],[-100.2993,249.6174],[-100.2993,249.5174],[-100.2823,249.5174],[-100.2823,249.5024]],[[-84.2823,249.4174],[-84.7173,249.4174],[-84.7173,248.5874],[-84.2823,248.5874],[-84.2823,249.4174]],[[-101.2323,248.5874],[-100.2823,248.5874],[-100.2823,249.4174],[-101.2323,249.4174],[-101.2323,248.5874]]]},"properties":{"building_id":"AD","floor":2,"kind":"wall","height":0.5,"base_height":0}},{"type":"Feature","geometry":{"type":"Polygon","coordinates":[[[-84.7823,271.7024],[-84.2823,271.7024],[-84.2823,271.5124],[-84.7823,271.5124],[-84.7823,271.4624],[-85.4823,271.4624],[-85.4823,271.5624],[-84.7823,271.5624],[-84.7823,271.6524],[-85.4823,271.6524],[-85.4823,271.7524],[-84.7823,271.7524],[-84.7823,271.7024]]]},"properties":{"building_id":"AD","floor":2,"kind":"wall","height":0.5,"base_height":0}},{"type":"Feature","geometry":{"type":"Polygon","coordinates":[[[-84.7173,252.1174],[-84.8173,252.1174],[-84.8173,260.6874],[-84.7173,260.6874],[-84.7173,252.1174]]]},"properties":{"building_id":"AD","floor":2,"kind":"wall","height":0.5,"base_height":0}},{"type":"Feature","geometry":{"type":"Polygon","coordinates":[[[-90.6693,239.0224],[-91.3693,239.0224],[-91.3693,239.1224],[-90.6693,239.1224],[-90.6693,239.0724],[-85.3973,239.0724],[-85.3973,238.8824],[-90.6693,238.8824],[-90.6693,238.8324],[-91.3693,238.8324],[-91.3693,238.9324],[-90.6693,238.9324],[-90.6693,239.0224]]]},"properties":{"building_id":"AD","floor":2,"kind":"wall","height":0.5,"base_height":0}},{"type":"Feature","geometry":{"type":"Polygon","coordinates":[[[-92.2823,242.9424],[-89.3923,242.9424],[-89.3923,242.1024],[-85.3973,242.1024],[-85.3973,241.9124],[-91.7823,241.9124],[-91.7823,242.1024],[-89.4823,242.1024],[-89.4823,242.8524],[-92.1923,242.8524],[-92.1923,242.1024],[-91.7823,242.1024],[-91.7823,239.0724],[-91.3693,239.0724],[-91.3693,238.8824],[-92.2823,238.8824],[-92.2823,238.9524],[-91.7823,238.9524],[-92.2823,238.9524],[-92.2823,239.4524],[-91.9723,239.4524],[-91.9723,241.1024],[-92.2823,241.1024],[-92.2823,242.9424]]]},"properties":{"building_id":"AD","floor":2,"kind":"wall","height":0.5,"base_height":0}},{"type":"Feature","geometry":{"type":"Polygon","coordinates":[[[-89.0323,271.6524],[-89.0323,271.7524],[-88.3323,271.7524],[-88.3323,271.7024],[-85.4823,271.7024],[-85.4823,271.5124],[-88.3323,271.5124],[-88.3323,271.4624],[-89.0323,271.4624],[-89.0323,271.5624],[-88.3323,271.5624],[-88.3323,271.6524],[-89.0323,271.6524]]]},"properties":{"building_id":"AD","floor":2,"kind":"wall","height":0.5,"base_height":0}},{"type":"Feature","geometry":{"type":"Polygon","coordinates":[[[-93.6823,271.5124],[-93.6823,271.7024],[-92.2823,271.7024],[-92.2823,271.5124],[-93.4973,271.5124],[-93.4973,270.6574],[-93.6173,270.6574],[-93.6173,271.5124],[-93.6823,271.5124]]]},"properties":{"building_id":"AD","floor":2,"kind":"wall","height":0.5,"base_height":0}},{"type":"Feature","geometry":{"type":"Polygon","coordinates":[[[-100.2823,256.9024],[-99.7823,256.9024],[-99.7823,256.4624],[-92.2823,256.4624],[-92.2823,256.3424],[-99.7823,256.3424],[-99.7823,255.9024],[-100.2823,255.9024],[-100.2823,256.9024]]]},"properties":{"building_id":"AD","floor":2,"kind":"wall","height":0.5,"base_height":0}},{"type":"Feature","geometry":{"type":"Polygon","coordinates":[[[-100.2823,264.2174],[-101.2323,264.2174],[-101.2323,263.3874],[-100.2823,263.3874],[-100.2823,263.2874],[-100.2973,263.2874],[-100.2973,263.1874],[-100.4173,263.1874],[-100.4173,263.2874],[-101.3323,263.2874],[-101.3323,264.3174],[-100.2823,264.3174],[-100.2823,264.2174]]]},"properties":{"building_id":"AD","floor":2,"kind":"wall","height":0.5,"base_height":0}},{"type":"Feature","geometry":{"type":"Polygon","coordinates":[[[-100.2993,251.1174],[-100.2993,250.6174],[-100.4193,250.6174],[-100.4193,251.0174],[-101.3323,251.0174],[-101.3323,261.7874],[-100.4173,261.7874],[-100.4173,262.1874],[-100.2973,262.1874],[-100.2973,261.6874],[-101.2323,261.6874],[-101.2323,251.1174],[-100.2993,251.1174]]]},"properties":{"building_id":"AD","floor":2,"kind":"wall","height":0.5,"base_height":0}},{"type":"Feature","geometry":{"type":"Polygon","coordinates":[[[-100.3973,252.1174],[-100.3973,260.6874],[-100.2973,260.6874],[-100.2973,252.1174],[-100.3973,252.1174]]]},"properties":{"building_id":"AD","floor":2,"kind":"wall","height":0.5,"base_height":0}},{"type":"Feature","geometry":{"type":"Polygon","coordinates":[[[-108.3773,254.6384],[-108.5673,254.6384],[-108.5673,256.9874],[-108.6173,256.9874],[-108.6173,257.6874],[-108.5173,257.6874],[-108.5173,256.9874],[-108.4273,256.9874],[-108.4273,257.6874],[-108.3273,257.6874],[-108.3273,256.9874],[-108.3773,256.9874],[-108.3773,256.4624],[-103.5523,256.4624],[-103.5523,259.6474],[-103.4323,259.6474],[-103.4323,256.2974],[-103.5523,256.2974],[-103.5523,256.3424],[-108.3773,256.3424],[-108.3773,254.6384]]]},"properties":{"building_id":"AD","floor":2,"kind":"wall","height":0.5,"base_height":0}},{"type":"Feature","geometry":{"type":"Polygon","coordinates":[[[-108.6173,262.0874],[-108.5173,262.0874],[-108.5173,261.3874],[-108.4273,261.3874],[-108.4273,262.0874],[-108.3273,262.0874],[-108.3273,261.3874],[-108.3773,261.3874],[-108.3773,260.8576],[-103.5523,260.8576],[-103.5523,260.9474],[-103.4323,260.9474],[-103.4323,260.6474],[-103.5523,260.6474],[-103.5523,260.7376],[-108.3773,260.7376],[-108.3773,260.2374],[-108.5673,260.2374],[-108.5673,261.3874],[-108.6173,261.3874],[-108.6173,262.0874]]]},"properties":{"building_id":"AD","floor":2,"kind":"wall","height":0.5,"base_height":0}},{"type":"Feature","geometry":{"type":"Polygon","coordinates":[[[-108.5673,263.3024],[-108.3773,263.3024],[-108.3773,262.0874],[-108.5673,262.0874],[-108.5673,263.3024]]]},"properties":{"building_id":"AD","floor":2,"kind":"wall","height":0.5,"base_height":0}},{"type":"Feature","geometry":{"type":"Polygon","coordinates":[[[-106.8473,263.3024],[-108.6673,263.3024],[-108.6673,263.4924],[-106.9423,263.4924],[-106.9423,264.3874],[-106.7523,264.3874],[-106.7523,263.4074],[-103.4323,263.4074],[-103.4323,261.9474],[-103.5523,261.9474],[-103.5523,263.2874],[-106.8473,263.2874],[-106.8473,263.3024]]]},"properties":{"building_id":"AD","floor":2,"kind":"wall","height":0.5,"base_height":0}},{"type":"Feature","geometry":{"type":"Polygon","coordinates":[[[-108.5173,247.8024],[-108.4273,247.8024],[-108.4273,248.5024],[-108.3273,248.5024],[-108.3273,247.8024],[-108.3773,247.8024],[-108.3773,247.2874],[-104.3873,247.2874],[-104.3873,247.2724],[-103.5523,247.2724],[-103.5523,249.0974],[-103.4323,249.0974],[-103.4323,247.1824],[-103.4473,247.1824],[-103.4473,244.1324],[-103.6373,244.1324],[-103.6373,244.2324],[-104.4923,244.2324],[-104.4923,244.3324],[-103.6373,244.3324],[-103.6373,245.6924],[-104.4773,245.6924],[-104.4773,247.1674],[-108.3773,247.1674],[-108.3773,247.1374],[-108.5673,247.1374],[-108.5673,247.8024],[-108.6173,247.8024],[-108.6173,248.5024],[-108.5173,248.5024],[-108.5173,247.8024]],[[-104.3873,245.7824],[-103.5373,245.7824],[-103.5373,247.1824],[-104.3873,247.1824],[-104.3873,245.7824]]]},"properties":{"building_id":"AD","floor":2,"kind":"wall","height":0.5,"base_height":0}},{"type":"Feature","geometry":{"type":"Polygon","coordinates":[[[-108.4273,252.7874],[-108.3273,252.7874],[-108.3273,252.0874],[-108.3773,252.0874],[-108.3773,250.3074],[-103.5523,250.3074],[-103.5523,250.3974],[-103.4323,250.3974],[-103.4323,250.0974],[-103.5523,250.0974],[-103.5523,250.1874],[-108.3773,250.1874],[-108.3773,248.5024],[-108.5673,248.5024],[-108.5673,252.0874],[-108.6173,252.0874],[-108.6173,252.7874],[-108.5173,252.7874],[-108.5173,252.0874],[-108.4273,252.0874],[-108.4273,252.7874]]]},"properties":{"building_id":"AD","floor":2,"kind":"wall","height":0.5,"base_height":0}},{"type":"Feature","geometry":{"type":"Polygon","coordinates":[[[-108.3773,253.4274],[-103.5523,253.4274],[-103.5523,255.2974],[-103.4323,255.2974],[-103.4323,251.3974],[-103.5523,251.3974],[-103.5523,253.3074],[-108.3773,253.3074],[-108.3773,252.7874],[-108.5673,252.7874],[-108.5673,253.9384],[-108.6173,253.9384],[-108.6173,254.6384],[-108.5173,254.6384],[-108.5173,253.9384],[-108.4273,253.9384],[-108.4273,254.6384],[-108.3273,254.6384],[-108.3273,253.9384],[-108.3773,253.9384],[-108.3773,253.4274]]]},"properties":{"building_id":"AD","floor":2,"kind":"wall","height":0.5,"base_height":0}},{"type":"Feature","geometry":{"type":"Polygon","coordinates":[[[-110.2823,273.3524],[-110.2823,273.8524],[-109.7823,273.8524],[-109.7823,273.4424],[-106.7523,273.4424],[-106.7523,265.3874],[-106.9423,265.3874],[-106.9423,265.5024],[-108.6673,265.5024],[-108.6673,265.6924],[-106.9423,265.6924],[-106.9423,272.4624],[-109.7823,272.4624],[-109.7823,271.7024],[-109.9723,271.7024],[-109.9723,273.3524],[-110.2823,273.3524]],[[-106.8423,272.6524],[-106.8423,273.3524],[-108.0423,273.3524],[-108.0423,272.6524],[-106.8423,272.6524]],[[-108.1323,272.6524],[-108.1323,273.3524],[-109.8723,273.3524],[-109.8723,272.6524],[-108.1323,272.6524]]]},"properties":{"building_id":"AD","floor":2,"kind":"wall","height":0.5,"base_height":0}},{"type":"Feature","geometry":{"type":"Polygon","coordinates":[[[-108.3773,257.6874],[-108.5673,257.6874],[-108.5673,259.5374],[-108.6173,259.5374],[-108.6173,260.2374],[-108.5173,260.2374],[-108.5173,259.5374],[-108.4273,259.5374],[-108.4273,260.2374],[-108.3273,260.2374],[-108.3273,259.5374],[-108.3773,259.5374],[-108.3773,257.6874]]]},"properties":{"building_id":"AD","floor":2,"kind":"wall","height":0.5,"base_height":0}},{"type":"Feature","geometry":{"type":"Polygon","coordinates":[[[-110.2823,263.3024],[-110.2823,264.3024],[-109.7823,264.3024],[-109.7823,263.4924],[-109.6673,263.4924],[-109.6673,263.3024],[-110.2823,263.3024]]]},"properties":{"building_id":"AD","floor":2,"kind":"wall","height":0.5,"base_height":0}},{"type":"Feature","geometry":{"type":"Polygon","coordinates":[[[-109.7823,266.0074],[-109.7823,265.6924],[-109.6673,265.6924],[-109.6673,265.5024],[-109.9723,265.5024],[-109.9723,266.0074],[-110.0223,266.0074],[-110.0223,266.7074],[-109.9223,266.7074],[-109.9223,266.0074],[-109.8323,266.0074],[-109.8323,266.7074],[-109.7323,266.7074],[-109.7323,266.0074],[-109.7823,266.0074]]]},"properties":{"building_id":"AD","floor":2,"kind":"wall","height":0.5,"base_height":0}},{"type":"Feature","geometry":{"type":"Polygon","coordinates":[[[-109.7823,266.7074],[-109.9723,266.7074],[-109.9723,270.7024],[-109.7823,270.7024],[-109.7823,266.7074]]]},"properties":{"building_id":"AD","floor":2,"kind":"wall","height":0.5,"base_height":0}}]}
